[{"OBJECT_NAME":"STARLINK-33982","OBJECT_ID":"2025-087L","EPOCH":"2026-03-09T16:59:34.061568","MEAN_MOTION":15.30201303,"ECCENTRICITY":9.925e-5,"INCLINATION":53.1571,"RA_OF_ASC_NODE":219.3837,"ARG_OF_PERICENTER":62.446,"MEAN_ANOMALY":297.6642,"EPHEMERIS_TYPE":0,"CLASSIFICATION_TYPE":"U","NORAD_CAT_ID":63707,"ELEMENT_SET_NO":999,"REV_AT_EPOCH":4920,"BSTAR":0.00090453347,"MEAN_MOTION_DOT":0.00026527,"MEAN_MOTION_DDOT":0},{"OBJECT_NAME":"ELECTRON KICK STAGE R\/B","OBJECT_ID":"2024-248B","EPOCH":"2026-03-09T20:49:52.700448","MEAN_MOTION":15.26602112,"ECCENTRICITY":0.00382118,"INCLINATION":97.6105,"RA_OF_ASC_NODE":34.9036,"ARG_OF_PERICENTER":284.4829,"MEAN_ANOMALY":75.2171,"EPHEMERIS_TYPE":0,"CLASSIFICATION_TYPE":"U","NORAD_CAT_ID":62407,"ELEMENT_SET_NO":999,"REV_AT_EPOCH":6727,"BSTAR":0.0006831254,"MEAN_MOTION_DOT":0.00018217,"MEAN_MOTION_DDOT":0}]
